CCSDS_OMM_VERS = 2.0
CREATION_DATE  = 
ORIGINATOR     = 

OBJECT_NAME    = ALOS (DAICHI)
OBJECT_ID      = 2006-002A
CENTER_NAME    = EARTH
REF_FRAME      = TEME
TIME_SYSTEM    = UTC
MEAN_ELEMENT_THEORY = SGP/SGP4

EPOCH          = 2026-02-05T07:13:56.690112
MEAN_MOTION    = 14.69700693
ECCENTRICITY   = .00020491
INCLINATION    = 98.1167
RA_OF_ASC_NODE = 352.4339
ARG_OF_PERICENTER = 68.8415
MEAN_ANOMALY   = 291.3009

EPHEMERIS_TYPE = 0
CLASSIFICATION_TYPE = U
NORAD_CAT_ID   = 28931
ELEMENT_SET_NO = 999
REV_AT_EPOCH   = 6872
BSTAR          = .36274899E-3
MEAN_MOTION_DOT = .2111E-4
MEAN_MOTION_DDOT = 0

CCSDS_OMM_VERS = 2.0
CREATION_DATE  = 
ORIGINATOR     = 

OBJECT_NAME    = H-2A R/B
OBJECT_ID      = 2006-002B
CENTER_NAME    = EARTH
REF_FRAME      = TEME
TIME_SYSTEM    = UTC
MEAN_ELEMENT_THEORY = SGP/SGP4

EPOCH          = 2026-02-05T08:01:54.771744
MEAN_MOTION    = 15.15770419
ECCENTRICITY   = .00531272
INCLINATION    = 98.2362
RA_OF_ASC_NODE = 180.6072
ARG_OF_PERICENTER = 352.5548
MEAN_ANOMALY   = 7.4887

EPHEMERIS_TYPE = 0
CLASSIFICATION_TYPE = U
NORAD_CAT_ID   = 28932
ELEMENT_SET_NO = 999
REV_AT_EPOCH   = 8953
BSTAR          = .65832576E-3
MEAN_MOTION_DOT = .12952E-3
MEAN_MOTION_DDOT = 0

CCSDS_OMM_VERS = 2.0
CREATION_DATE  = 
ORIGINATOR     = 

OBJECT_NAME    = RESURS-DK 1
OBJECT_ID      = 2006-021A
CENTER_NAME    = EARTH
REF_FRAME      = TEME
TIME_SYSTEM    = UTC
MEAN_ELEMENT_THEORY = SGP/SGP4

EPOCH          = 2026-02-05T04:46:05.613312
MEAN_MOTION    = 15.12548417
ECCENTRICITY   = .00049023
INCLINATION    = 69.9352
RA_OF_ASC_NODE = 321.0559
ARG_OF_PERICENTER = 208.4378
MEAN_ANOMALY   = 151.6521

EPHEMERIS_TYPE = 0
CLASSIFICATION_TYPE = U
NORAD_CAT_ID   = 29228
ELEMENT_SET_NO = 999
REV_AT_EPOCH   = 8261
BSTAR          = .2605885E-3
MEAN_MOTION_DOT = .4449E-4
MEAN_MOTION_DDOT = 0

CCSDS_OMM_VERS = 2.0
CREATION_DATE  = 
ORIGINATOR     = 

OBJECT_NAME    = CZ-4B R/B
OBJECT_ID      = 2006-046C
CENTER_NAME    = EARTH
REF_FRAME      = TEME
TIME_SYSTEM    = UTC
MEAN_ELEMENT_THEORY = SGP/SGP4

EPOCH          = 2026-02-05T02:01:26.913792
MEAN_MOTION    = 15.16544716
ECCENTRICITY   = .00340776
INCLINATION    = 97.5650
RA_OF_ASC_NODE = 81.0778
ARG_OF_PERICENTER = 23.2382
MEAN_ANOMALY   = 337.0382

EPHEMERIS_TYPE = 0
CLASSIFICATION_TYPE = U
NORAD_CAT_ID   = 29507
ELEMENT_SET_NO = 999
REV_AT_EPOCH   = 5510
BSTAR          = .32581191E-3
MEAN_MOTION_DOT = .638E-4
MEAN_MOTION_DDOT = 0

CCSDS_OMM_VERS = 2.0
CREATION_DATE  = 
ORIGINATOR     = 

OBJECT_NAME    = CZ-2C R/B
OBJECT_ID      = 2007-010B
CENTER_NAME    = EARTH
REF_FRAME      = TEME
TIME_SYSTEM    = UTC
MEAN_ELEMENT_THEORY = SGP/SGP4

EPOCH          = 2026-02-05T05:57:33.783552
MEAN_MOTION    = 14.20234773
ECCENTRICITY   = .00594767
INCLINATION    = 98.3970
RA_OF_ASC_NODE = 151.1567
ARG_OF_PERICENTER = 29.5852
MEAN_ANOMALY   = 330.8669

EPHEMERIS_TYPE = 0
CLASSIFICATION_TYPE = U
NORAD_CAT_ID   = 31114
ELEMENT_SET_NO = 999
REV_AT_EPOCH   = 97511
BSTAR          = .90896721E-4
MEAN_MOTION_DOT = .157E-5
MEAN_MOTION_DDOT = 0

CCSDS_OMM_VERS = 2.0
CREATION_DATE  = 
ORIGINATOR     = 

OBJECT_NAME    = COSMO-SKYMED 1
OBJECT_ID      = 2007-023A
CENTER_NAME    = EARTH
REF_FRAME      = TEME
TIME_SYSTEM    = UTC
MEAN_ELEMENT_THEORY = SGP/SGP4

EPOCH          = 2026-02-05T07:12:17.595360
MEAN_MOTION    = 14.96276931
ECCENTRICITY   = .00011153
INCLINATION    = 97.8856
RA_OF_ASC_NODE = 227.0804
ARG_OF_PERICENTER = 74.7022
MEAN_ANOMALY   = 285.4322

EPHEMERIS_TYPE = 0
CLASSIFICATION_TYPE = U
NORAD_CAT_ID   = 31598
ELEMENT_SET_NO = 999
REV_AT_EPOCH   = 1006
BSTAR          = .475354E-3
MEAN_MOTION_DOT = .5312E-4
MEAN_MOTION_DDOT = 0

CCSDS_OMM_VERS = 2.0
CREATION_DATE  = 
ORIGINATOR     = 

OBJECT_NAME    = COSMOS 2428
OBJECT_ID      = 2007-029A
CENTER_NAME    = EARTH
REF_FRAME      = TEME
TIME_SYSTEM    = UTC
MEAN_ELEMENT_THEORY = SGP/SGP4

EPOCH          = 2026-02-05T02:39:03.217824
MEAN_MOTION    = 14.12930124
ECCENTRICITY   = .00070718
INCLINATION    = 70.9399
RA_OF_ASC_NODE = 271.7327
ARG_OF_PERICENTER = 313.2442
MEAN_ANOMALY   = 46.8088

EPHEMERIS_TYPE = 0
CLASSIFICATION_TYPE = U
NORAD_CAT_ID   = 31792
ELEMENT_SET_NO = 999
REV_AT_EPOCH   = 95949
BSTAR          = .22813497E-3
MEAN_MOTION_DOT = .377E-5
MEAN_MOTION_DDOT = 0

CCSDS_OMM_VERS = 2.0
CREATION_DATE  = 
ORIGINATOR     = 

OBJECT_NAME    = SL-16 R/B
OBJECT_ID      = 2007-029B
CENTER_NAME    = EARTH
REF_FRAME      = TEME
TIME_SYSTEM    = UTC
MEAN_ELEMENT_THEORY = SGP/SGP4

EPOCH          = 2026-02-05T01:30:35.924256
MEAN_MOTION    = 14.14828217
ECCENTRICITY   = .00018551
INCLINATION    = 70.9731
RA_OF_ASC_NODE = 240.9674
ARG_OF_PERICENTER = 275.3223
MEAN_ANOMALY   = 255.5051

EPHEMERIS_TYPE = 0
CLASSIFICATION_TYPE = U
NORAD_CAT_ID   = 31793
ELEMENT_SET_NO = 999
REV_AT_EPOCH   = 96075
BSTAR          = .24495281E-3
MEAN_MOTION_DOT = .425E-5
MEAN_MOTION_DDOT = 0

CCSDS_OMM_VERS = 2.0
CREATION_DATE  = 
ORIGINATOR     = 

OBJECT_NAME    = KORONAS-FOTON
OBJECT_ID      = 2009-003A
CENTER_NAME    = EARTH
REF_FRAME      = TEME
TIME_SYSTEM    = UTC
MEAN_ELEMENT_THEORY = SGP/SGP4

EPOCH          = 2026-02-05T04:57:41.904864
MEAN_MOTION    = 15.42470518
ECCENTRICITY   = .00089076
INCLINATION    = 82.4332
RA_OF_ASC_NODE = 309.6225
ARG_OF_PERICENTER = 277.8567
MEAN_ANOMALY   = 82.1669

EPHEMERIS_TYPE = 0
CLASSIFICATION_TYPE = U
NORAD_CAT_ID   = 33504
ELEMENT_SET_NO = 999
REV_AT_EPOCH   = 94073
BSTAR          = .32996586E-3
MEAN_MOTION_DOT = .14345E-3
MEAN_MOTION_DDOT = 0

CCSDS_OMM_VERS = 2.0
CREATION_DATE  = 
ORIGINATOR     = 

OBJECT_NAME    = CZ-2C R/B
OBJECT_ID      = 2011-030B
CENTER_NAME    = EARTH
REF_FRAME      = TEME
TIME_SYSTEM    = UTC
MEAN_ELEMENT_THEORY = SGP/SGP4

EPOCH          = 2026-02-05T07:50:11.889600
MEAN_MOTION    = 14.81097244
ECCENTRICITY   = .00542336
INCLINATION    = 97.8491
RA_OF_ASC_NODE = 354.2543
ARG_OF_PERICENTER = 95.4730
MEAN_ANOMALY   = 359.9120

EPHEMERIS_TYPE = 0
CLASSIFICATION_TYPE = U
NORAD_CAT_ID   = 37731
ELEMENT_SET_NO = 999
REV_AT_EPOCH   = 78530
BSTAR          = .25965563E-3
MEAN_MOTION_DOT = .2013E-4
MEAN_MOTION_DDOT = 0

CCSDS_OMM_VERS = 2.0
CREATION_DATE  = 
ORIGINATOR     = 

OBJECT_NAME    = H-2A R/B
OBJECT_ID      = 2012-025E
CENTER_NAME    = EARTH
REF_FRAME      = TEME
TIME_SYSTEM    = UTC
MEAN_ELEMENT_THEORY = SGP/SGP4

EPOCH          = 2026-02-05T06:25:48.580032
MEAN_MOTION    = 14.94882334
ECCENTRICITY   = .00461631
INCLINATION    = 98.4684
RA_OF_ASC_NODE = 0.7418
ARG_OF_PERICENTER = 59.5913
MEAN_ANOMALY   = 300.9856

EPHEMERIS_TYPE = 0
CLASSIFICATION_TYPE = U
NORAD_CAT_ID   = 38341
ELEMENT_SET_NO = 999
REV_AT_EPOCH   = 74337
BSTAR          = .44288259E-3
MEAN_MOTION_DOT = .4863E-4
MEAN_MOTION_DDOT = 0

CCSDS_OMM_VERS = 2.0
CREATION_DATE  = 
ORIGINATOR     = 

OBJECT_NAME    = SHIJIAN-16 (SJ-16)
OBJECT_ID      = 2013-057A
CENTER_NAME    = EARTH
REF_FRAME      = TEME
TIME_SYSTEM    = UTC
MEAN_ELEMENT_THEORY = SGP/SGP4

EPOCH          = 2026-02-05T07:33:15.001344
MEAN_MOTION    = 14.92228511
ECCENTRICITY   = .00169881
INCLINATION    = 74.9703
RA_OF_ASC_NODE = 246.3737
ARG_OF_PERICENTER = 193.0089
MEAN_ANOMALY   = 167.0663

EPHEMERIS_TYPE = 0
CLASSIFICATION_TYPE = U
NORAD_CAT_ID   = 39358
ELEMENT_SET_NO = 999
REV_AT_EPOCH   = 66667
BSTAR          = .86863806E-4
MEAN_MOTION_DOT = .858E-5
MEAN_MOTION_DDOT = 0

