ALOS (DAICHI)           
1 28931U 06002A   26036.30135058  .00002111  00000+0  36275-3 0  9993
2 28931  98.1167 352.4339 0002049  68.8415 291.3009 14.69700693 68725
H-2A R/B                
1 28932U 06002B   26036.33466171  .00012952  00000+0  65833-3 0  9996
2 28932  98.2362 180.6072 0053127 352.5548   7.4887 15.15770419 89539
RESURS-DK 1             
1 29228U 06021A   26036.19867608  .00004449  00000+0  26059-3 0  9999
2 29228  69.9352 321.0559 0004902 208.4378 151.6521 15.12548417 82617
CZ-4B R/B               
1 29507U 06046C   26036.08433928  .00006380  00000+0  32581-3 0  9991
2 29507  97.5650  81.0778 0034077  23.2382 337.0382 15.16544716 55106
CZ-2C R/B               
1 31114U 07010B   26036.24830768  .00000157  00000+0  90897-4 0  9992
2 31114  98.3970 151.1567 0059476  29.5852 330.8669 14.20234773975117
COSMO-SKYMED 1          
1 31598U 07023A   26036.30020365  .00005312  00000+0  47535-3 0  9991
2 31598  97.8856 227.0804 0001115  74.7022 285.4322 14.96276931 10065
COSMOS 2428             
1 31792U 07029A   26036.11045391  .00000377  00000+0  22813-3 0  9996
2 31792  70.9399 271.7327 0007071 313.2442  46.8088 14.12930124959491
SL-16 R/B               
1 31793U 07029B   26036.06291579  .00000425  00000+0  24495-3 0  9994
2 31793  70.9731 240.9674 0001855 275.3223 255.5051 14.14828217960755
KORONAS-FOTON           
1 33504U 09003A   26036.20673501  .00014345  00000+0  32997-3 0  9997
2 33504  82.4332 309.6225 0008907 277.8567  82.1669 15.42470518940734
CZ-2C R/B               
1 37731U 11030B   26036.32652650  .00002013  00000+0  25966-3 0  9998
2 37731  97.8491 354.2543 0054233  95.4730 359.9120 14.81097244785304
H-2A R/B                
1 38341U 12025E   26036.26792338  .00004863  00000+0  44288-3 0  9995
2 38341  98.4684   0.7418 0046163  59.5913 300.9856 14.94882334743373
SHIJIAN-16 (SJ-16)      
1 39358U 13057A   26036.31475696  .00000858  00000+0  86864-4 0  9998
2 39358  74.9703 246.3737 0016988 193.0089 167.0663 14.92228511666679
